ACS3                    
1 59588U 24077B   24298.51283329  .00018825  00000+0  20786-1 0  9990
2 59588  97.4726 336.9147 0046572 177.8741 182.2618 13.71355851 25097
